{
"type": "FeatureCollection",
"name": "graticule",
"features": [
{ "type": "Feature", "properties": { "type": "lat", "value": 50 }, "geometry": { "type": "MultiLineString", "coordinates": [ [ [ 180.0, 50.0 ], [ 178.0, 50.0 ] ], [ [ 178.0, 50.0 ], [ 176.0, 50.0 ] ], [ [ 176.0, 50.0 ], [ 174.0, 50.0 ] ], [ [ 174.0, 50.0 ], [ 172.0, 50.0 ] ], [ [ 172.0, 50.0 ], [ 170.0, 50.0 ] ], [ [ 170.0, 50.0 ], [ 168.0, 50.0 ] ], [ [ 168.0, 50.0 ], [ 166.0, 50.0 ] ], [ [ 166.0, 50.0 ], [ 164.0, 50.0 ] ], [ [ 164.0, 50.0 ], [ 162.0, 50.0 ] ], [ [ 162.0, 50.0 ], [ 160.0, 50.0 ] ], [ [ 160.0, 50.0 ], [ 158.0, 50.0 ] ], [ [ 158.0, 50.0 ], [ 156.0, 50.0 ] ], [ [ 156.0, 50.0 ], [ 154.0, 50.0 ] ], [ [ 154.0, 50.0 ], [ 152.0, 50.0 ] ], [ [ 152.0, 50.0 ], [ 150.0, 50.0 ] ], [ [ 150.0, 50.0 ], [ 148.0, 50.0 ] ], [ [ 148.0, 50.0 ], [ 146.0, 50.0 ] ], [ [ 146.0, 50.0 ], [ 144.0, 50.0 ] ], [ [ 144.0, 50.0 ], [ 142.0, 50.0 ] ], [ [ 142.0, 50.0 ], [ 140.0, 50.0 ] ], [ [ 140.0, 50.0 ], [ 138.0, 50.0 ] ], [ [ 138.0, 50.0 ], [ 136.0, 50.0 ] ], [ [ 136.0, 50.0 ], [ 134.0, 50.0 ] ], [ [ 134.0, 50.0 ], [ 132.0, 50.0 ] ], [ [ 132.0, 50.0 ], [ 130.0, 50.0 ] ], [ [ 130.0, 50.0 ], [ 128.0, 50.0 ] ], [ [ 128.0, 50.0 ], [ 126.0, 50.0 ] ], [ [ 126.0, 50.0 ], [ 124.0, 50.0 ] ], [ [ 124.0, 50.0 ], [ 122.0, 50.0 ] ], [ [ 122.0, 50.0 ], [ 120.0, 50.0 ] ], [ [ 120.0, 50.0 ], [ 118.0, 50.0 ] ], [ [ 118.0, 50.0 ], [ 116.0, 50.0 ] ], [ [ 116.0, 50.0 ], [ 114.0, 50.0 ] ], [ [ 114.0, 50.0 ], [ 112.0, 50.0 ] ], [ [ 112.0, 50.0 ], [ 110.0, 50.0 ] ], [ [ 110.0, 50.0 ], [ 108.0, 50.0 ] ], [ [ 108.0, 50.0 ], [ 106.0, 50.0 ] ], [ [ 106.0, 50.0 ], [ 104.0, 50.0 ] ], [ [ 104.0, 50.0 ], [ 102.0, 50.0 ] ], [ [ 102.0, 50.0 ], [ 100.0, 50.0 ] ], [ [ 100.0, 50.0 ], [ 98.0, 50.0 ] ], [ [ 98.0, 50.0 ], [ 96.0, 50.0 ] ], [ [ 96.0, 50.0 ], [ 94.0, 50.0 ] ], [ [ 94.0, 50.0 ], [ 92.0, 50.0 ] ], [ [ 92.0, 50.0 ], [ 90.0, 50.0 ] ], [ [ 90.0, 50.0 ], [ 88.0, 50.0 ] ], [ [ 88.0, 50.0 ], [ 86.0, 50.0 ] ], [ [ 86.0, 50.0 ], [ 84.0, 50.0 ] ], [ [ 84.0, 50.0 ], [ 82.0, 50.0 ] ], [ [ 82.0, 50.0 ], [ 80.0, 50.0 ] ], [ [ 80.0, 50.0 ], [ 78.0, 50.0 ] ], [ [ 78.0, 50.0 ], [ 76.0, 50.0 ] ], [ [ 76.0, 50.0 ], [ 74.0, 50.0 ] ], [ [ 74.0, 50.0 ], [ 72.0, 50.0 ] ], [ [ 72.0, 50.0 ], [ 70.0, 50.0 ] ], [ [ 70.0, 50.0 ], [ 68.0, 50.0 ] ], [ [ 68.0, 50.0 ], [ 66.0, 50.0 ] ], [ [ 66.0, 50.0 ], [ 64.0, 50.0 ] ], [ [ 64.0, 50.0 ], [ 62.0, 50.0 ] ], [ [ 62.0, 50.0 ], [ 60.0, 50.0 ] ], [ [ 60.0, 50.0 ], [ 58.0, 50.0 ] ], [ [ 58.0, 50.0 ], [ 56.0, 50.0 ] ], [ [ 56.0, 50.0 ], [ 54.0, 50.0 ] ], [ [ 54.0, 50.0 ], [ 52.0, 50.0 ] ], [ [ 52.0, 50.0 ], [ 50.0, 50.0 ] ], [ [ 50.0, 50.0 ], [ 48.0, 50.0 ] ], [ [ 48.0, 50.0 ], [ 46.0, 50.0 ] ], [ [ 46.0, 50.0 ], [ 44.0, 50.0 ] ], [ [ 44.0, 50.0 ], [ 42.0, 50.0 ] ], [ [ 42.0, 50.0 ], [ 40.0, 50.0 ] ], [ [ 40.0, 50.0 ], [ 38.0, 50.0 ] ], [ [ 38.0, 50.0 ], [ 36.0, 50.0 ] ], [ [ 36.0, 50.0 ], [ 34.0, 50.0 ] ], [ [ 34.0, 50.0 ], [ 32.0, 50.0 ] ], [ [ 32.0, 50.0 ], [ 30.0, 50.0 ] ], [ [ 30.0, 50.0 ], [ 28.0, 50.0 ] ], [ [ 28.0, 50.0 ], [ 26.0, 50.0 ] ], [ [ 26.0, 50.0 ], [ 24.0, 50.0 ] ], [ [ 24.0, 50.0 ], [ 22.0, 50.0 ] ], [ [ 22.0, 50.0 ], [ 20.0, 50.0 ] ], [ [ 20.0, 50.0 ], [ 18.0, 50.0 ] ], [ [ 18.0, 50.0 ], [ 16.0, 50.0 ] ], [ [ 16.0, 50.0 ], [ 14.0, 50.0 ] ], [ [ 14.0, 50.0 ], [ 12.0, 50.0 ] ], [ [ 12.0, 50.0 ], [ 10.0, 50.0 ] ], [ [ 10.0, 50.0 ], [ 8.0, 50.0 ] ], [ [ 8.0, 50.0 ], [ 6.0, 50.0 ] ], [ [ 6.0, 50.0 ], [ 4.0, 50.0 ] ], [ [ 4.0, 50.0 ], [ 2.0, 50.0 ] ], [ [ 2.0, 50.0 ], [ 0.0, 50.0 ] ], [ [ 0.0, 50.0 ], [ -2.0, 50.0 ] ], [ [ -2.0, 50.0 ], [ -4.0, 50.0 ] ], [ [ -4.0, 50.0 ], [ -6.0, 50.0 ] ], [ [ -6.0, 50.0 ], [ -8.0, 50.0 ] ], [ [ -8.0, 50.0 ], [ -10.0, 50.0 ] ], [ [ -10.0, 50.0 ], [ -12.0, 50.0 ] ], [ [ -12.0, 50.0 ], [ -14.0, 50.0 ] ], [ [ -14.0, 50.0 ], [ -16.0, 50.0 ] ], [ [ -16.0, 50.0 ], [ -18.0, 50.0 ] ], [ [ -18.0, 50.0 ], [ -20.0, 50.0 ] ], [ [ -20.0, 50.0 ], [ -22.0, 50.0 ] ], [ [ -22.0, 50.0 ], [ -24.0, 50.0 ] ], [ [ -24.0, 50.0 ], [ -26.0, 50.0 ] ], [ [ -26.0, 50.0 ], [ -28.0, 50.0 ] ], [ [ -28.0, 50.0 ], [ -30.0, 50.0 ] ], [ [ -30.0, 50.0 ], [ -32.0, 50.0 ] ], [ [ -32.0, 50.0 ], [ -34.0, 50.0 ] ], [ [ -34.0, 50.0 ], [ -36.0, 50.0 ] ], [ [ -36.0, 50.0 ], [ -38.0, 50.0 ] ], [ [ -38.0, 50.0 ], [ -40.0, 50.0 ] ], [ [ -40.0, 50.0 ], [ -42.0, 50.0 ] ], [ [ -42.0, 50.0 ], [ -44.0, 50.0 ] ], [ [ -44.0, 50.0 ], [ -46.0, 50.0 ] ], [ [ -46.0, 50.0 ], [ -48.0, 50.0 ] ], [ [ -48.0, 50.0 ], [ -50.0, 50.0 ] ], [ [ -50.0, 50.0 ], [ -52.0, 50.0 ] ], [ [ -52.0, 50.0 ], [ -54.0, 50.0 ] ], [ [ -54.0, 50.0 ], [ -56.0, 50.0 ] ], [ [ -56.0, 50.0 ], [ -58.0, 50.0 ] ], [ [ -58.0, 50.0 ], [ -60.0, 50.0 ] ], [ [ -60.0, 50.0 ], [ -62.0, 50.0 ] ], [ [ -62.0, 50.0 ], [ -64.0, 50.0 ] ], [ [ -64.0, 50.0 ], [ -66.0, 50.0 ] ], [ [ -66.0, 50.0 ], [ -68.0, 50.0 ] ], [ [ -68.0, 50.0 ], [ -70.0, 50.0 ] ], [ [ -70.0, 50.0 ], [ -72.0, 50.0 ] ], [ [ -72.0, 50.0 ], [ -74.0, 50.0 ] ], [ [ -74.0, 50.0 ], [ -76.0, 50.0 ] ], [ [ -76.0, 50.0 ], [ -78.0, 50.0 ] ], [ [ -78.0, 50.0 ], [ -80.0, 50.0 ] ], [ [ -80.0, 50.0 ], [ -82.0, 50.0 ] ], [ [ -82.0, 50.0 ], [ -84.0, 50.0 ] ], [ [ -84.0, 50.0 ], [ -86.0, 50.0 ] ], [ [ -86.0, 50.0 ], [ -88.0, 50.0 ] ], [ [ -88.0, 50.0 ], [ -90.0, 50.0 ] ], [ [ -90.0, 50.0 ], [ -92.0, 50.0 ] ], [ [ -92.0, 50.0 ], [ -94.0, 50.0 ] ], [ [ -94.0, 50.0 ], [ -96.0, 50.0 ] ], [ [ -96.0, 50.0 ], [ -98.0, 50.0 ] ], [ [ -98.0, 50.0 ], [ -100.0, 50.0 ] ], [ [ -100.0, 50.0 ], [ -102.0, 50.0 ] ], [ [ -102.0, 50.0 ], [ -104.0, 50.0 ] ], [ [ -104.0, 50.0 ], [ -106.0, 50.0 ] ], [ [ -106.0, 50.0 ], [ -108.0, 50.0 ] ], [ [ -108.0, 50.0 ], [ -110.0, 50.0 ] ], [ [ -110.0, 50.0 ], [ -112.0, 50.0 ] ], [ [ -112.0, 50.0 ], [ -114.0, 50.0 ] ], [ [ -114.0, 50.0 ], [ -116.0, 50.0 ] ], [ [ -116.0, 50.0 ], [ -118.0, 50.0 ] ], [ [ -118.0, 50.0 ], [ -120.0, 50.0 ] ], [ [ -120.0, 50.0 ], [ -122.0, 50.0 ] ], [ [ -122.0, 50.0 ], [ -124.0, 50.0 ] ], [ [ -124.0, 50.0 ], [ -126.0, 50.0 ] ], [ [ -126.0, 50.0 ], [ -128.0, 50.0 ] ], [ [ -128.0, 50.0 ], [ -130.0, 50.0 ] ], [ [ -130.0, 50.0 ], [ -132.0, 50.0 ] ], [ [ -132.0, 50.0 ], [ -134.0, 50.0 ] ], [ [ -134.0, 50.0 ], [ -136.0, 50.0 ] ], [ [ -136.0, 50.0 ], [ -138.0, 50.0 ] ], [ [ -138.0, 50.0 ], [ -140.0, 50.0 ] ], [ [ -140.0, 50.0 ], [ -142.0, 50.0 ] ], [ [ -142.0, 50.0 ], [ -144.0, 50.0 ] ], [ [ -144.0, 50.0 ], [ -146.0, 50.0 ] ], [ [ -146.0, 50.0 ], [ -148.0, 50.0 ] ], [ [ -148.0, 50.0 ], [ -150.0, 50.0 ] ], [ [ -150.0, 50.0 ], [ -152.0, 50.0 ] ], [ [ -152.0, 50.0 ], [ -154.0, 50.0 ] ], [ [ -154.0, 50.0 ], [ -156.0, 50.0 ] ], [ [ -156.0, 50.0 ], [ -158.0, 50.0 ] ], [ [ -158.0, 50.0 ], [ -160.0, 50.0 ] ], [ [ -160.0, 50.0 ], [ -162.0, 50.0 ] ], [ [ -162.0, 50.0 ], [ -164.0, 50.0 ] ], [ [ -164.0, 50.0 ], [ -166.0, 50.0 ] ], [ [ -166.0, 50.0 ], [ -168.0, 50.0 ] ], [ [ -168.0, 50.0 ], [ -170.0, 50.0 ] ], [ [ -170.0, 50.0 ], [ -172.0, 50.0 ] ], [ [ -172.0, 50.0 ], [ -174.0, 50.0 ] ], [ [ -174.0, 50.0 ], [ -176.0, 50.0 ] ], [ [ -176.0, 50.0 ], [ -178.0, 50.0 ] ], [ [ -178.0, 50.0 ], [ -180.0, 50.0 ] ] ] } },
{ "type": "Feature", "properties": { "type": "lat", "value": 60 }, "geometry": { "type": "LineString", "coordinates": [ [ -180.0, 60.0 ], [ -178.0, 60.0 ], [ -176.0, 60.0 ], [ -174.0, 60.0 ], [ -172.0, 60.0 ], [ -170.0, 60.0 ], [ -168.0, 60.0 ], [ -166.0, 60.0 ], [ -164.0, 60.0 ], [ -162.0, 60.0 ], [ -160.0, 60.0 ], [ -158.0, 60.0 ], [ -156.0, 60.0 ], [ -154.0, 60.0 ], [ -152.0, 60.0 ], [ -150.0, 60.0 ], [ -148.0, 60.0 ], [ -146.0, 60.0 ], [ -144.0, 60.0 ], [ -142.0, 60.0 ], [ -140.0, 60.0 ], [ -138.0, 60.0 ], [ -136.0, 60.0 ], [ -134.0, 60.0 ], [ -132.0, 60.0 ], [ -130.0, 60.0 ], [ -128.0, 60.0 ], [ -126.0, 60.0 ], [ -124.0, 60.0 ], [ -122.0, 60.0 ], [ -120.0, 60.0 ], [ -118.0, 60.0 ], [ -116.0, 60.0 ], [ -114.0, 60.0 ], [ -112.0, 60.0 ], [ -110.0, 60.0 ], [ -108.0, 60.0 ], [ -106.0, 60.0 ], [ -104.0, 60.0 ], [ -102.0, 60.0 ], [ -100.0, 60.0 ], [ -98.0, 60.0 ], [ -96.0, 60.0 ], [ -94.0, 60.0 ], [ -92.0, 60.0 ], [ -90.0, 60.0 ], [ -88.0, 60.0 ], [ -86.0, 60.0 ], [ -84.0, 60.0 ], [ -82.0, 60.0 ], [ -80.0, 60.0 ], [ -78.0, 60.0 ], [ -76.0, 60.0 ], [ -74.0, 60.0 ], [ -72.0, 60.0 ], [ -70.0, 60.0 ], [ -68.0, 60.0 ], [ -66.0, 60.0 ], [ -64.0, 60.0 ], [ -62.0, 60.0 ], [ -60.0, 60.0 ], [ -58.0, 60.0 ], [ -56.0, 60.0 ], [ -54.0, 60.0 ], [ -52.0, 60.0 ], [ -50.0, 60.0 ], [ -48.0, 60.0 ], [ -46.0, 60.0 ], [ -44.0, 60.0 ], [ -42.0, 60.0 ], [ -40.0, 60.0 ], [ -38.0, 60.0 ], [ -36.0, 60.0 ], [ -34.0, 60.0 ], [ -32.0, 60.0 ], [ -30.0, 60.0 ], [ -28.0, 60.0 ], [ -26.0, 60.0 ], [ -24.0, 60.0 ], [ -22.0, 60.0 ], [ -20.0, 60.0 ], [ -18.0, 60.0 ], [ -16.0, 60.0 ], [ -14.0, 60.0 ], [ -12.0, 60.0 ], [ -10.0, 60.0 ], [ -8.0, 60.0 ], [ -6.0, 60.0 ], [ -4.0, 60.0 ], [ -2.0, 60.0 ], [ 0.0, 60.0 ], [ 2.0, 60.0 ], [ 4.0, 60.0 ], [ 6.0, 60.0 ], [ 8.0, 60.0 ], [ 10.0, 60.0 ], [ 12.0, 60.0 ], [ 14.0, 60.0 ], [ 16.0, 60.0 ], [ 18.0, 60.0 ], [ 20.0, 60.0 ], [ 22.0, 60.0 ], [ 24.0, 60.0 ], [ 26.0, 60.0 ], [ 28.0, 60.0 ], [ 30.0, 60.0 ], [ 32.0, 60.0 ], [ 34.0, 60.0 ], [ 36.0, 60.0 ], [ 38.0, 60.0 ], [ 40.0, 60.0 ], [ 42.0, 60.0 ], [ 44.0, 60.0 ], [ 46.0, 60.0 ], [ 48.0, 60.0 ], [ 50.0, 60.0 ], [ 52.0, 60.0 ], [ 54.0, 60.0 ], [ 56.0, 60.0 ], [ 58.0, 60.0 ], [ 60.0, 60.0 ], [ 62.0, 60.0 ], [ 64.0, 60.0 ], [ 66.0, 60.0 ], [ 68.0, 60.0 ], [ 70.0, 60.0 ], [ 72.0, 60.0 ], [ 74.0, 60.0 ], [ 76.0, 60.0 ], [ 78.0, 60.0 ], [ 80.0, 60.0 ], [ 82.0, 60.0 ], [ 84.0, 60.0 ], [ 86.0, 60.0 ], [ 88.0, 60.0 ], [ 90.0, 60.0 ], [ 92.0, 60.0 ], [ 94.0, 60.0 ], [ 96.0, 60.0 ], [ 98.0, 60.0 ], [ 100.0, 60.0 ], [ 102.0, 60.0 ], [ 104.0, 60.0 ], [ 106.0, 60.0 ], [ 108.0, 60.0 ], [ 110.0, 60.0 ], [ 112.0, 60.0 ], [ 114.0, 60.0 ], [ 116.0, 60.0 ], [ 118.0, 60.0 ], [ 120.0, 60.0 ], [ 122.0, 60.0 ], [ 124.0, 60.0 ], [ 126.0, 60.0 ], [ 128.0, 60.0 ], [ 130.0, 60.0 ], [ 132.0, 60.0 ], [ 134.0, 60.0 ], [ 136.0, 60.0 ], [ 138.0, 60.0 ], [ 140.0, 60.0 ], [ 142.0, 60.0 ], [ 144.0, 60.0 ], [ 146.0, 60.0 ], [ 148.0, 60.0 ], [ 150.0, 60.0 ], [ 152.0, 60.0 ], [ 154.0, 60.0 ], [ 156.0, 60.0 ], [ 158.0, 60.0 ], [ 160.0, 60.0 ], [ 162.0, 60.0 ], [ 164.0, 60.0 ], [ 166.0, 60.0 ], [ 168.0, 60.0 ], [ 170.0, 60.0 ], [ 172.0, 60.0 ], [ 174.0, 60.0 ], [ 176.0, 60.0 ], [ 178.0, 60.0 ], [ 180.0, 60.0 ] ] } },
{ "type": "Feature", "properties": { "type": "lat", "value": 70 }, "geometry": { "type": "LineString", "coordinates": [ [ -180.0, 70.0 ], [ -178.0, 70.0 ], [ -176.0, 70.0 ], [ -174.0, 70.0 ], [ -172.0, 70.0 ], [ -170.0, 70.0 ], [ -168.0, 70.0 ], [ -166.0, 70.0 ], [ -164.0, 70.0 ], [ -162.0, 70.0 ], [ -160.0, 70.0 ], [ -158.0, 70.0 ], [ -156.0, 70.0 ], [ -154.0, 70.0 ], [ -152.0, 70.0 ], [ -150.0, 70.0 ], [ -148.0, 70.0 ], [ -146.0, 70.0 ], [ -144.0, 70.0 ], [ -142.0, 70.0 ], [ -140.0, 70.0 ], [ -138.0, 70.0 ], [ -136.0, 70.0 ], [ -134.0, 70.0 ], [ -132.0, 70.0 ], [ -130.0, 70.0 ], [ -128.0, 70.0 ], [ -126.0, 70.0 ], [ -124.0, 70.0 ], [ -122.0, 70.0 ], [ -120.0, 70.0 ], [ -118.0, 70.0 ], [ -116.0, 70.0 ], [ -114.0, 70.0 ], [ -112.0, 70.0 ], [ -110.0, 70.0 ], [ -108.0, 70.0 ], [ -106.0, 70.0 ], [ -104.0, 70.0 ], [ -102.0, 70.0 ], [ -100.0, 70.0 ], [ -98.0, 70.0 ], [ -96.0, 70.0 ], [ -94.0, 70.0 ], [ -92.0, 70.0 ], [ -90.0, 70.0 ], [ -88.0, 70.0 ], [ -86.0, 70.0 ], [ -84.0, 70.0 ], [ -82.0, 70.0 ], [ -80.0, 70.0 ], [ -78.0, 70.0 ], [ -76.0, 70.0 ], [ -74.0, 70.0 ], [ -72.0, 70.0 ], [ -70.0, 70.0 ], [ -68.0, 70.0 ], [ -66.0, 70.0 ], [ -64.0, 70.0 ], [ -62.0, 70.0 ], [ -60.0, 70.0 ], [ -58.0, 70.0 ], [ -56.0, 70.0 ], [ -54.0, 70.0 ], [ -52.0, 70.0 ], [ -50.0, 70.0 ], [ -48.0, 70.0 ], [ -46.0, 70.0 ], [ -44.0, 70.0 ], [ -42.0, 70.0 ], [ -40.0, 70.0 ], [ -38.0, 70.0 ], [ -36.0, 70.0 ], [ -34.0, 70.0 ], [ -32.0, 70.0 ], [ -30.0, 70.0 ], [ -28.0, 70.0 ], [ -26.0, 70.0 ], [ -24.0, 70.0 ], [ -22.0, 70.0 ], [ -20.0, 70.0 ], [ -18.0, 70.0 ], [ -16.0, 70.0 ], [ -14.0, 70.0 ], [ -12.0, 70.0 ], [ -10.0, 70.0 ], [ -8.0, 70.0 ], [ -6.0, 70.0 ], [ -4.0, 70.0 ], [ -2.0, 70.0 ], [ 0.0, 70.0 ], [ 2.0, 70.0 ], [ 4.0, 70.0 ], [ 6.0, 70.0 ], [ 8.0, 70.0 ], [ 10.0, 70.0 ], [ 12.0, 70.0 ], [ 14.0, 70.0 ], [ 16.0, 70.0 ], [ 18.0, 70.0 ], [ 20.0, 70.0 ], [ 22.0, 70.0 ], [ 24.0, 70.0 ], [ 26.0, 70.0 ], [ 28.0, 70.0 ], [ 30.0, 70.0 ], [ 32.0, 70.0 ], [ 34.0, 70.0 ], [ 36.0, 70.0 ], [ 38.0, 70.0 ], [ 40.0, 70.0 ], [ 42.0, 70.0 ], [ 44.0, 70.0 ], [ 46.0, 70.0 ], [ 48.0, 70.0 ], [ 50.0, 70.0 ], [ 52.0, 70.0 ], [ 54.0, 70.0 ], [ 56.0, 70.0 ], [ 58.0, 70.0 ], [ 60.0, 70.0 ], [ 62.0, 70.0 ], [ 64.0, 70.0 ], [ 66.0, 70.0 ], [ 68.0, 70.0 ], [ 70.0, 70.0 ], [ 72.0, 70.0 ], [ 74.0, 70.0 ], [ 76.0, 70.0 ], [ 78.0, 70.0 ], [ 80.0, 70.0 ], [ 82.0, 70.0 ], [ 84.0, 70.0 ], [ 86.0, 70.0 ], [ 88.0, 70.0 ], [ 90.0, 70.0 ], [ 92.0, 70.0 ], [ 94.0, 70.0 ], [ 96.0, 70.0 ], [ 98.0, 70.0 ], [ 100.0, 70.0 ], [ 102.0, 70.0 ], [ 104.0, 70.0 ], [ 106.0, 70.0 ], [ 108.0, 70.0 ], [ 110.0, 70.0 ], [ 112.0, 70.0 ], [ 114.0, 70.0 ], [ 116.0, 70.0 ], [ 118.0, 70.0 ], [ 120.0, 70.0 ], [ 122.0, 70.0 ], [ 124.0, 70.0 ], [ 126.0, 70.0 ], [ 128.0, 70.0 ], [ 130.0, 70.0 ], [ 132.0, 70.0 ], [ 134.0, 70.0 ], [ 136.0, 70.0 ], [ 138.0, 70.0 ], [ 140.0, 70.0 ], [ 142.0, 70.0 ], [ 144.0, 70.0 ], [ 146.0, 70.0 ], [ 148.0, 70.0 ], [ 150.0, 70.0 ], [ 152.0, 70.0 ], [ 154.0, 70.0 ], [ 156.0, 70.0 ], [ 158.0, 70.0 ], [ 160.0, 70.0 ], [ 162.0, 70.0 ], [ 164.0, 70.0 ], [ 166.0, 70.0 ], [ 168.0, 70.0 ], [ 170.0, 70.0 ], [ 172.0, 70.0 ], [ 174.0, 70.0 ], [ 176.0, 70.0 ], [ 178.0, 70.0 ], [ 180.0, 70.0 ] ] } },
{ "type": "Feature", "properties": { "type": "lat", "value": 80 }, "geometry": { "type": "LineString", "coordinates": [ [ -180.0, 80.0 ], [ -178.0, 80.0 ], [ -176.0, 80.0 ], [ -174.0, 80.0 ], [ -172.0, 80.0 ], [ -170.0, 80.0 ], [ -168.0, 80.0 ], [ -166.0, 80.0 ], [ -164.0, 80.0 ], [ -162.0, 80.0 ], [ -160.0, 80.0 ], [ -158.0, 80.0 ], [ -156.0, 80.0 ], [ -154.0, 80.0 ], [ -152.0, 80.0 ], [ -150.0, 80.0 ], [ -148.0, 80.0 ], [ -146.0, 80.0 ], [ -144.0, 80.0 ], [ -142.0, 80.0 ], [ -140.0, 80.0 ], [ -138.0, 80.0 ], [ -136.0, 80.0 ], [ -134.0, 80.0 ], [ -132.0, 80.0 ], [ -130.0, 80.0 ], [ -128.0, 80.0 ], [ -126.0, 80.0 ], [ -124.0, 80.0 ], [ -122.0, 80.0 ], [ -120.0, 80.0 ], [ -118.0, 80.0 ], [ -116.0, 80.0 ], [ -114.0, 80.0 ], [ -112.0, 80.0 ], [ -110.0, 80.0 ], [ -108.0, 80.0 ], [ -106.0, 80.0 ], [ -104.0, 80.0 ], [ -102.0, 80.0 ], [ -100.0, 80.0 ], [ -98.0, 80.0 ], [ -96.0, 80.0 ], [ -94.0, 80.0 ], [ -92.0, 80.0 ], [ -90.0, 80.0 ], [ -88.0, 80.0 ], [ -86.0, 80.0 ], [ -84.0, 80.0 ], [ -82.0, 80.0 ], [ -80.0, 80.0 ], [ -78.0, 80.0 ], [ -76.0, 80.0 ], [ -74.0, 80.0 ], [ -72.0, 80.0 ], [ -70.0, 80.0 ], [ -68.0, 80.0 ], [ -66.0, 80.0 ], [ -64.0, 80.0 ], [ -62.0, 80.0 ], [ -60.0, 80.0 ], [ -58.0, 80.0 ], [ -56.0, 80.0 ], [ -54.0, 80.0 ], [ -52.0, 80.0 ], [ -50.0, 80.0 ], [ -48.0, 80.0 ], [ -46.0, 80.0 ], [ -44.0, 80.0 ], [ -42.0, 80.0 ], [ -40.0, 80.0 ], [ -38.0, 80.0 ], [ -36.0, 80.0 ], [ -34.0, 80.0 ], [ -32.0, 80.0 ], [ -30.0, 80.0 ], [ -28.0, 80.0 ], [ -26.0, 80.0 ], [ -24.0, 80.0 ], [ -22.0, 80.0 ], [ -20.0, 80.0 ], [ -18.0, 80.0 ], [ -16.0, 80.0 ], [ -14.0, 80.0 ], [ -12.0, 80.0 ], [ -10.0, 80.0 ], [ -8.0, 80.0 ], [ -6.0, 80.0 ], [ -4.0, 80.0 ], [ -2.0, 80.0 ], [ 0.0, 80.0 ], [ 2.0, 80.0 ], [ 4.0, 80.0 ], [ 6.0, 80.0 ], [ 8.0, 80.0 ], [ 10.0, 80.0 ], [ 12.0, 80.0 ], [ 14.0, 80.0 ], [ 16.0, 80.0 ], [ 18.0, 80.0 ], [ 20.0, 80.0 ], [ 22.0, 80.0 ], [ 24.0, 80.0 ], [ 26.0, 80.0 ], [ 28.0, 80.0 ], [ 30.0, 80.0 ], [ 32.0, 80.0 ], [ 34.0, 80.0 ], [ 36.0, 80.0 ], [ 38.0, 80.0 ], [ 40.0, 80.0 ], [ 42.0, 80.0 ], [ 44.0, 80.0 ], [ 46.0, 80.0 ], [ 48.0, 80.0 ], [ 50.0, 80.0 ], [ 52.0, 80.0 ], [ 54.0, 80.0 ], [ 56.0, 80.0 ], [ 58.0, 80.0 ], [ 60.0, 80.0 ], [ 62.0, 80.0 ], [ 64.0, 80.0 ], [ 66.0, 80.0 ], [ 68.0, 80.0 ], [ 70.0, 80.0 ], [ 72.0, 80.0 ], [ 74.0, 80.0 ], [ 76.0, 80.0 ], [ 78.0, 80.0 ], [ 80.0, 80.0 ], [ 82.0, 80.0 ], [ 84.0, 80.0 ], [ 86.0, 80.0 ], [ 88.0, 80.0 ], [ 90.0, 80.0 ], [ 92.0, 80.0 ], [ 94.0, 80.0 ], [ 96.0, 80.0 ], [ 98.0, 80.0 ], [ 100.0, 80.0 ], [ 102.0, 80.0 ], [ 104.0, 80.0 ], [ 106.0, 80.0 ], [ 108.0, 80.0 ], [ 110.0, 80.0 ], [ 112.0, 80.0 ], [ 114.0, 80.0 ], [ 116.0, 80.0 ], [ 118.0, 80.0 ], [ 120.0, 80.0 ], [ 122.0, 80.0 ], [ 124.0, 80.0 ], [ 126.0, 80.0 ], [ 128.0, 80.0 ], [ 130.0, 80.0 ], [ 132.0, 80.0 ], [ 134.0, 80.0 ], [ 136.0, 80.0 ], [ 138.0, 80.0 ], [ 140.0, 80.0 ], [ 142.0, 80.0 ], [ 144.0, 80.0 ], [ 146.0, 80.0 ], [ 148.0, 80.0 ], [ 150.0, 80.0 ], [ 152.0, 80.0 ], [ 154.0, 80.0 ], [ 156.0, 80.0 ], [ 158.0, 80.0 ], [ 160.0, 80.0 ], [ 162.0, 80.0 ], [ 164.0, 80.0 ], [ 166.0, 80.0 ], [ 168.0, 80.0 ], [ 170.0, 80.0 ], [ 172.0, 80.0 ], [ 174.0, 80.0 ], [ 176.0, 80.0 ], [ 178.0, 80.0 ], [ 180.0, 80.0 ] ] } },
{ "type": "Feature", "properties": { "type": "lon", "value": -180 }, "geometry": { "type": "MultiLineString", "coordinates": [ [ [ -180.0, 50.0 ], [ -180.0, 51.0 ] ], [ [ -180.0, 51.0 ], [ -180.0, 52.0 ] ], [ [ -180.0, 52.0 ], [ -180.0, 53.0 ] ], [ [ -180.0, 53.0 ], [ -180.0, 54.0 ] ], [ [ -180.0, 54.0 ], [ -180.0, 55.0 ] ], [ [ -180.0, 55.0 ], [ -180.0, 56.0 ] ], [ [ -180.0, 56.0 ], [ -180.0, 57.0 ] ], [ [ -180.0, 57.0 ], [ -180.0, 58.0 ] ], [ [ -180.0, 58.0 ], [ -180.0, 59.0 ] ], [ [ -180.0, 59.0 ], [ -180.0, 60.0 ] ], [ [ -180.0, 60.0 ], [ -180.0, 61.0 ] ], [ [ -180.0, 61.0 ], [ -180.0, 62.0 ] ], [ [ -180.0, 62.0 ], [ -180.0, 63.0 ] ], [ [ -180.0, 63.0 ], [ -180.0, 64.0 ] ], [ [ -180.0, 64.0 ], [ -180.0, 65.0 ] ], [ [ -180.0, 65.0 ], [ -180.0, 66.0 ] ], [ [ -180.0, 66.0 ], [ -180.0, 67.0 ] ], [ [ -180.0, 67.0 ], [ -180.0, 68.0 ] ], [ [ -180.0, 68.0 ], [ -180.0, 69.0 ] ], [ [ -180.0, 69.0 ], [ -180.0, 70.0 ] ], [ [ -180.0, 70.0 ], [ -180.0, 71.0 ] ], [ [ -180.0, 71.0 ], [ -180.0, 72.0 ] ], [ [ -180.0, 72.0 ], [ -180.0, 73.0 ] ], [ [ -180.0, 73.0 ], [ -180.0, 74.0 ] ], [ [ -180.0, 74.0 ], [ -180.0, 75.0 ] ], [ [ -180.0, 75.0 ], [ -180.0, 76.0 ] ], [ [ -180.0, 76.0 ], [ -180.0, 77.0 ] ], [ [ -180.0, 77.0 ], [ -180.0, 78.0 ] ], [ [ -180.0, 78.0 ], [ -180.0, 79.0 ] ], [ [ -180.0, 79.0 ], [ -180.0, 80.0 ] ], [ [ -180.0, 80.0 ], [ -180.0, 81.0 ] ], [ [ -180.0, 81.0 ], [ -180.0, 82.0 ] ], [ [ -180.0, 82.0 ], [ -180.0, 83.0 ] ], [ [ -180.0, 83.0 ], [ -180.0, 84.0 ] ], [ [ -180.0, 84.0 ], [ -180.0, 85.0 ] ], [ [ -180.0, 85.0 ], [ -180.0, 86.0 ] ], [ [ -180.0, 86.0 ], [ -180.0, 87.0 ] ], [ [ -180.0, 87.0 ], [ -180.0, 88.0 ] ], [ [ -180.0, 88.0 ], [ -180.0, 89.0 ] ], [ [ -180.0, 89.0 ], [ -180.0, 90.0 ] ] ] } },
{ "type": "Feature", "properties": { "type": "lon", "value": -150 }, "geometry": { "type": "LineString", "coordinates": [ [ -150.0, 50.0 ], [ -150.0, 51.0 ], [ -150.0, 52.0 ], [ -150.0, 53.0 ], [ -150.0, 54.0 ], [ -150.0, 55.0 ], [ -150.0, 56.0 ], [ -150.0, 57.0 ], [ -150.0, 58.0 ], [ -150.0, 59.0 ], [ -150.0, 60.0 ], [ -150.0, 61.0 ], [ -150.0, 62.0 ], [ -150.0, 63.0 ], [ -150.0, 64.0 ], [ -150.0, 65.0 ], [ -150.0, 66.0 ], [ -150.0, 67.0 ], [ -150.0, 68.0 ], [ -150.0, 69.0 ], [ -150.0, 70.0 ], [ -150.0, 71.0 ], [ -150.0, 72.0 ], [ -150.0, 73.0 ], [ -150.0, 74.0 ], [ -150.0, 75.0 ], [ -150.0, 76.0 ], [ -150.0, 77.0 ], [ -150.0, 78.0 ], [ -150.0, 79.0 ], [ -150.0, 80.0 ], [ -150.0, 81.0 ], [ -150.0, 82.0 ], [ -150.0, 83.0 ], [ -150.0, 84.0 ], [ -150.0, 85.0 ], [ -150.0, 86.0 ], [ -150.0, 87.0 ], [ -150.0, 88.0 ], [ -150.0, 89.0 ], [ -150.0, 90.0 ] ] } },
{ "type": "Feature", "properties": { "type": "lon", "value": -120 }, "geometry": { "type": "LineString", "coordinates": [ [ -120.0, 50.0 ], [ -120.0, 51.0 ], [ -120.0, 52.0 ], [ -120.0, 53.0 ], [ -120.0, 54.0 ], [ -120.0, 55.0 ], [ -120.0, 56.0 ], [ -120.0, 57.0 ], [ -120.0, 58.0 ], [ -120.0, 59.0 ], [ -120.0, 60.0 ], [ -120.0, 61.0 ], [ -120.0, 62.0 ], [ -120.0, 63.0 ], [ -120.0, 64.0 ], [ -120.0, 65.0 ], [ -120.0, 66.0 ], [ -120.0, 67.0 ], [ -120.0, 68.0 ], [ -120.0, 69.0 ], [ -120.0, 70.0 ], [ -120.0, 71.0 ], [ -120.0, 72.0 ], [ -120.0, 73.0 ], [ -120.0, 74.0 ], [ -120.0, 75.0 ], [ -120.0, 76.0 ], [ -120.0, 77.0 ], [ -120.0, 78.0 ], [ -120.0, 79.0 ], [ -120.0, 80.0 ], [ -120.0, 81.0 ], [ -120.0, 82.0 ], [ -120.0, 83.0 ], [ -120.0, 84.0 ], [ -120.0, 85.0 ], [ -120.0, 86.0 ], [ -120.0, 87.0 ], [ -120.0, 88.0 ], [ -120.0, 89.0 ], [ -120.0, 90.0 ] ] } },
{ "type": "Feature", "properties": { "type": "lon", "value": -90 }, "geometry": { "type": "LineString", "coordinates": [ [ -90.0, 50.0 ], [ -90.0, 51.0 ], [ -90.0, 52.0 ], [ -90.0, 53.0 ], [ -90.0, 54.0 ], [ -90.0, 55.0 ], [ -90.0, 56.0 ], [ -90.0, 57.0 ], [ -90.0, 58.0 ], [ -90.0, 59.0 ], [ -90.0, 60.0 ], [ -90.0, 61.0 ], [ -90.0, 62.0 ], [ -90.0, 63.0 ], [ -90.0, 64.0 ], [ -90.0, 65.0 ], [ -90.0, 66.0 ], [ -90.0, 67.0 ], [ -90.0, 68.0 ], [ -90.0, 69.0 ], [ -90.0, 70.0 ], [ -90.0, 71.0 ], [ -90.0, 72.0 ], [ -90.0, 73.0 ], [ -90.0, 74.0 ], [ -90.0, 75.0 ], [ -90.0, 76.0 ], [ -90.0, 77.0 ], [ -90.0, 78.0 ], [ -90.0, 79.0 ], [ -90.0, 80.0 ], [ -90.0, 81.0 ], [ -90.0, 82.0 ], [ -90.0, 83.0 ], [ -90.0, 84.0 ], [ -90.0, 85.0 ], [ -90.0, 86.0 ], [ -90.0, 87.0 ], [ -90.0, 88.0 ], [ -90.0, 89.0 ], [ -90.0, 90.0 ] ] } },
{ "type": "Feature", "properties": { "type": "lon", "value": -60 }, "geometry": { "type": "LineString", "coordinates": [ [ -60.0, 50.0 ], [ -60.0, 51.0 ], [ -60.0, 52.0 ], [ -60.0, 53.0 ], [ -60.0, 54.0 ], [ -60.0, 55.0 ], [ -60.0, 56.0 ], [ -60.0, 57.0 ], [ -60.0, 58.0 ], [ -60.0, 59.0 ], [ -60.0, 60.0 ], [ -60.0, 61.0 ], [ -60.0, 62.0 ], [ -60.0, 63.0 ], [ -60.0, 64.0 ], [ -60.0, 65.0 ], [ -60.0, 66.0 ], [ -60.0, 67.0 ], [ -60.0, 68.0 ], [ -60.0, 69.0 ], [ -60.0, 70.0 ], [ -60.0, 71.0 ], [ -60.0, 72.0 ], [ -60.0, 73.0 ], [ -60.0, 74.0 ], [ -60.0, 75.0 ], [ -60.0, 76.0 ], [ -60.0, 77.0 ], [ -60.0, 78.0 ], [ -60.0, 79.0 ], [ -60.0, 80.0 ], [ -60.0, 81.0 ], [ -60.0, 82.0 ], [ -60.0, 83.0 ], [ -60.0, 84.0 ], [ -60.0, 85.0 ], [ -60.0, 86.0 ], [ -60.0, 87.0 ], [ -60.0, 88.0 ], [ -60.0, 89.0 ], [ -60.0, 90.0 ] ] } },
{ "type": "Feature", "properties": { "type": "lon", "value": -30 }, "geometry": { "type": "LineString", "coordinates": [ [ -30.0, 50.0 ], [ -30.0, 51.0 ], [ -30.0, 52.0 ], [ -30.0, 53.0 ], [ -30.0, 54.0 ], [ -30.0, 55.0 ], [ -30.0, 56.0 ], [ -30.0, 57.0 ], [ -30.0, 58.0 ], [ -30.0, 59.0 ], [ -30.0, 60.0 ], [ -30.0, 61.0 ], [ -30.0, 62.0 ], [ -30.0, 63.0 ], [ -30.0, 64.0 ], [ -30.0, 65.0 ], [ -30.0, 66.0 ], [ -30.0, 67.0 ], [ -30.0, 68.0 ], [ -30.0, 69.0 ], [ -30.0, 70.0 ], [ -30.0, 71.0 ], [ -30.0, 72.0 ], [ -30.0, 73.0 ], [ -30.0, 74.0 ], [ -30.0, 75.0 ], [ -30.0, 76.0 ], [ -30.0, 77.0 ], [ -30.0, 78.0 ], [ -30.0, 79.0 ], [ -30.0, 80.0 ], [ -30.0, 81.0 ], [ -30.0, 82.0 ], [ -30.0, 83.0 ], [ -30.0, 84.0 ], [ -30.0, 85.0 ], [ -30.0, 86.0 ], [ -30.0, 87.0 ], [ -30.0, 88.0 ], [ -30.0, 89.0 ], [ -30.0, 90.0 ] ] } },
{ "type": "Feature", "properties": { "type": "lon", "value": 0 }, "geometry": { "type": "LineString", "coordinates": [ [ 0.0, 50.0 ], [ 0.0, 51.0 ], [ 0.0, 52.0 ], [ 0.0, 53.0 ], [ 0.0, 54.0 ], [ 0.0, 55.0 ], [ 0.0, 56.0 ], [ 0.0, 57.0 ], [ 0.0, 58.0 ], [ 0.0, 59.0 ], [ 0.0, 60.0 ], [ 0.0, 61.0 ], [ 0.0, 62.0 ], [ 0.0, 63.0 ], [ 0.0, 64.0 ], [ 0.0, 65.0 ], [ 0.0, 66.0 ], [ 0.0, 67.0 ], [ 0.0, 68.0 ], [ 0.0, 69.0 ], [ 0.0, 70.0 ], [ 0.0, 71.0 ], [ 0.0, 72.0 ], [ 0.0, 73.0 ], [ 0.0, 74.0 ], [ 0.0, 75.0 ], [ 0.0, 76.0 ], [ 0.0, 77.0 ], [ 0.0, 78.0 ], [ 0.0, 79.0 ], [ 0.0, 80.0 ], [ 0.0, 81.0 ], [ 0.0, 82.0 ], [ 0.0, 83.0 ], [ 0.0, 84.0 ], [ 0.0, 85.0 ], [ 0.0, 86.0 ], [ 0.0, 87.0 ], [ 0.0, 88.0 ], [ 0.0, 89.0 ], [ 0.0, 90.0 ] ] } },
{ "type": "Feature", "properties": { "type": "lon", "value": 30 }, "geometry": { "type": "LineString", "coordinates": [ [ 30.0, 50.0 ], [ 30.0, 51.0 ], [ 30.0, 52.0 ], [ 30.0, 53.0 ], [ 30.0, 54.0 ], [ 30.0, 55.0 ], [ 30.0, 56.0 ], [ 30.0, 57.0 ], [ 30.0, 58.0 ], [ 30.0, 59.0 ], [ 30.0, 60.0 ], [ 30.0, 61.0 ], [ 30.0, 62.0 ], [ 30.0, 63.0 ], [ 30.0, 64.0 ], [ 30.0, 65.0 ], [ 30.0, 66.0 ], [ 30.0, 67.0 ], [ 30.0, 68.0 ], [ 30.0, 69.0 ], [ 30.0, 70.0 ], [ 30.0, 71.0 ], [ 30.0, 72.0 ], [ 30.0, 73.0 ], [ 30.0, 74.0 ], [ 30.0, 75.0 ], [ 30.0, 76.0 ], [ 30.0, 77.0 ], [ 30.0, 78.0 ], [ 30.0, 79.0 ], [ 30.0, 80.0 ], [ 30.0, 81.0 ], [ 30.0, 82.0 ], [ 30.0, 83.0 ], [ 30.0, 84.0 ], [ 30.0, 85.0 ], [ 30.0, 86.0 ], [ 30.0, 87.0 ], [ 30.0, 88.0 ], [ 30.0, 89.0 ], [ 30.0, 90.0 ] ] } },
{ "type": "Feature", "properties": { "type": "lon", "value": 60 }, "geometry": { "type": "LineString", "coordinates": [ [ 60.0, 50.0 ], [ 60.0, 51.0 ], [ 60.0, 52.0 ], [ 60.0, 53.0 ], [ 60.0, 54.0 ], [ 60.0, 55.0 ], [ 60.0, 56.0 ], [ 60.0, 57.0 ], [ 60.0, 58.0 ], [ 60.0, 59.0 ], [ 60.0, 60.0 ], [ 60.0, 61.0 ], [ 60.0, 62.0 ], [ 60.0, 63.0 ], [ 60.0, 64.0 ], [ 60.0, 65.0 ], [ 60.0, 66.0 ], [ 60.0, 67.0 ], [ 60.0, 68.0 ], [ 60.0, 69.0 ], [ 60.0, 70.0 ], [ 60.0, 71.0 ], [ 60.0, 72.0 ], [ 60.0, 73.0 ], [ 60.0, 74.0 ], [ 60.0, 75.0 ], [ 60.0, 76.0 ], [ 60.0, 77.0 ], [ 60.0, 78.0 ], [ 60.0, 79.0 ], [ 60.0, 80.0 ], [ 60.0, 81.0 ], [ 60.0, 82.0 ], [ 60.0, 83.0 ], [ 60.0, 84.0 ], [ 60.0, 85.0 ], [ 60.0, 86.0 ], [ 60.0, 87.0 ], [ 60.0, 88.0 ], [ 60.0, 89.0 ], [ 60.0, 90.0 ] ] } },
{ "type": "Feature", "properties": { "type": "lon", "value": 90 }, "geometry": { "type": "LineString", "coordinates": [ [ 90.0, 50.0 ], [ 90.0, 51.0 ], [ 90.0, 52.0 ], [ 90.0, 53.0 ], [ 90.0, 54.0 ], [ 90.0, 55.0 ], [ 90.0, 56.0 ], [ 90.0, 57.0 ], [ 90.0, 58.0 ], [ 90.0, 59.0 ], [ 90.0, 60.0 ], [ 90.0, 61.0 ], [ 90.0, 62.0 ], [ 90.0, 63.0 ], [ 90.0, 64.0 ], [ 90.0, 65.0 ], [ 90.0, 66.0 ], [ 90.0, 67.0 ], [ 90.0, 68.0 ], [ 90.0, 69.0 ], [ 90.0, 70.0 ], [ 90.0, 71.0 ], [ 90.0, 72.0 ], [ 90.0, 73.0 ], [ 90.0, 74.0 ], [ 90.0, 75.0 ], [ 90.0, 76.0 ], [ 90.0, 77.0 ], [ 90.0, 78.0 ], [ 90.0, 79.0 ], [ 90.0, 80.0 ], [ 90.0, 81.0 ], [ 90.0, 82.0 ], [ 90.0, 83.0 ], [ 90.0, 84.0 ], [ 90.0, 85.0 ], [ 90.0, 86.0 ], [ 90.0, 87.0 ], [ 90.0, 88.0 ], [ 90.0, 89.0 ], [ 90.0, 90.0 ] ] } },
{ "type": "Feature", "properties": { "type": "lon", "value": 120 }, "geometry": { "type": "LineString", "coordinates": [ [ 120.0, 50.0 ], [ 120.0, 51.0 ], [ 120.0, 52.0 ], [ 120.0, 53.0 ], [ 120.0, 54.0 ], [ 120.0, 55.0 ], [ 120.0, 56.0 ], [ 120.0, 57.0 ], [ 120.0, 58.0 ], [ 120.0, 59.0 ], [ 120.0, 60.0 ], [ 120.0, 61.0 ], [ 120.0, 62.0 ], [ 120.0, 63.0 ], [ 120.0, 64.0 ], [ 120.0, 65.0 ], [ 120.0, 66.0 ], [ 120.0, 67.0 ], [ 120.0, 68.0 ], [ 120.0, 69.0 ], [ 120.0, 70.0 ], [ 120.0, 71.0 ], [ 120.0, 72.0 ], [ 120.0, 73.0 ], [ 120.0, 74.0 ], [ 120.0, 75.0 ], [ 120.0, 76.0 ], [ 120.0, 77.0 ], [ 120.0, 78.0 ], [ 120.0, 79.0 ], [ 120.0, 80.0 ], [ 120.0, 81.0 ], [ 120.0, 82.0 ], [ 120.0, 83.0 ], [ 120.0, 84.0 ], [ 120.0, 85.0 ], [ 120.0, 86.0 ], [ 120.0, 87.0 ], [ 120.0, 88.0 ], [ 120.0, 89.0 ], [ 120.0, 90.0 ] ] } },
{ "type": "Feature", "properties": { "type": "lon", "value": 150 }, "geometry": { "type": "LineString", "coordinates": [ [ 150.0, 50.0 ], [ 150.0, 51.0 ], [ 150.0, 52.0 ], [ 150.0, 53.0 ], [ 150.0, 54.0 ], [ 150.0, 55.0 ], [ 150.0, 56.0 ], [ 150.0, 57.0 ], [ 150.0, 58.0 ], [ 150.0, 59.0 ], [ 150.0, 60.0 ], [ 150.0, 61.0 ], [ 150.0, 62.0 ], [ 150.0, 63.0 ], [ 150.0, 64.0 ], [ 150.0, 65.0 ], [ 150.0, 66.0 ], [ 150.0, 67.0 ], [ 150.0, 68.0 ], [ 150.0, 69.0 ], [ 150.0, 70.0 ], [ 150.0, 71.0 ], [ 150.0, 72.0 ], [ 150.0, 73.0 ], [ 150.0, 74.0 ], [ 150.0, 75.0 ], [ 150.0, 76.0 ], [ 150.0, 77.0 ], [ 150.0, 78.0 ], [ 150.0, 79.0 ], [ 150.0, 80.0 ], [ 150.0, 81.0 ], [ 150.0, 82.0 ], [ 150.0, 83.0 ], [ 150.0, 84.0 ], [ 150.0, 85.0 ], [ 150.0, 86.0 ], [ 150.0, 87.0 ], [ 150.0, 88.0 ], [ 150.0, 89.0 ], [ 150.0, 90.0 ] ] } }
]
}
