{"type": "FeatureCollection", "features": [{"type": "Feature", "properties": {"type": "lat", "value": 50}, "geometry": {"type": "LineString", "coordinates": [[-180, 50], [-178, 50], [-176, 50], [-174, 50], [-172, 50], [-170, 50], [-168, 50], [-166, 50], [-164, 50], [-162, 50], [-160, 50], [-158, 50], [-156, 50], [-154, 50], [-152, 50], [-150, 50], [-148, 50], [-146, 50], [-144, 50], [-142, 50], [-140, 50], [-138, 50], [-136, 50], [-134, 50], [-132, 50], [-130, 50], [-128, 50], [-126, 50], [-124, 50], [-122, 50], [-120, 50], [-118, 50], [-116, 50], [-114, 50], [-112, 50], [-110, 50], [-108, 50], [-106, 50], [-104, 50], [-102, 50], [-100, 50], [-98, 50], [-96, 50], [-94, 50], [-92, 50], [-90, 50], [-88, 50], [-86, 50], [-84, 50], [-82, 50], [-80, 50], [-78, 50], [-76, 50], [-74, 50], [-72, 50], [-70, 50], [-68, 50], [-66, 50], [-64, 50], [-62, 50], [-60, 50], [-58, 50], [-56, 50], [-54, 50], [-52, 50], [-50, 50], [-48, 50], [-46, 50], [-44, 50], [-42, 50], [-40, 50], [-38, 50], [-36, 50], [-34, 50], [-32, 50], [-30, 50], [-28, 50], [-26, 50], [-24, 50], [-22, 50], [-20, 50], [-18, 50], [-16, 50], [-14, 50], [-12, 50], [-10, 50], [-8, 50], [-6, 50], [-4, 50], [-2, 50], [0, 50], [2, 50], [4, 50], [6, 50], [8, 50], [10, 50], [12, 50], [14, 50], [16, 50], [18, 50], [20, 50], [22, 50], [24, 50], [26, 50], [28, 50], [30, 50], [32, 50], [34, 50], [36, 50], [38, 50], [40, 50], [42, 50], [44, 50], [46, 50], [48, 50], [50, 50], [52, 50], [54, 50], [56, 50], [58, 50], [60, 50], [62, 50], [64, 50], [66, 50], [68, 50], [70, 50], [72, 50], [74, 50], [76, 50], [78, 50], [80, 50], [82, 50], [84, 50], [86, 50], [88, 50], [90, 50], [92, 50], [94, 50], [96, 50], [98, 50], [100, 50], [102, 50], [104, 50], [106, 50], [108, 50], [110, 50], [112, 50], [114, 50], [116, 50], [118, 50], [120, 50], [122, 50], [124, 50], [126, 50], [128, 50], [130, 50], [132, 50], [134, 50], [136, 50], [138, 50], [140, 50], [142, 50], [144, 50], [146, 50], [148, 50], [150, 50], [152, 50], [154, 50], [156, 50], [158, 50], [160, 50], [162, 50], [164, 50], [166, 50], [168, 50], [170, 50], [172, 50], [174, 50], [176, 50], [178, 50], [180, 50]]}}, {"type": "Feature", "properties": {"type": "lat", "value": 60}, "geometry": {"type": "LineString", "coordinates": [[-180, 60], [-178, 60], [-176, 60], [-174, 60], [-172, 60], [-170, 60], [-168, 60], [-166, 60], [-164, 60], [-162, 60], [-160, 60], [-158, 60], [-156, 60], [-154, 60], [-152, 60], [-150, 60], [-148, 60], [-146, 60], [-144, 60], [-142, 60], [-140, 60], [-138, 60], [-136, 60], [-134, 60], [-132, 60], [-130, 60], [-128, 60], [-126, 60], [-124, 60], [-122, 60], [-120, 60], [-118, 60], [-116, 60], [-114, 60], [-112, 60], [-110, 60], [-108, 60], [-106, 60], [-104, 60], [-102, 60], [-100, 60], [-98, 60], [-96, 60], [-94, 60], [-92, 60], [-90, 60], [-88, 60], [-86, 60], [-84, 60], [-82, 60], [-80, 60], [-78, 60], [-76, 60], [-74, 60], [-72, 60], [-70, 60], [-68, 60], [-66, 60], [-64, 60], [-62, 60], [-60, 60], [-58, 60], [-56, 60], [-54, 60], [-52, 60], [-50, 60], [-48, 60], [-46, 60], [-44, 60], [-42, 60], [-40, 60], [-38, 60], [-36, 60], [-34, 60], [-32, 60], [-30, 60], [-28, 60], [-26, 60], [-24, 60], [-22, 60], [-20, 60], [-18, 60], [-16, 60], [-14, 60], [-12, 60], [-10, 60], [-8, 60], [-6, 60], [-4, 60], [-2, 60], [0, 60], [2, 60], [4, 60], [6, 60], [8, 60], [10, 60], [12, 60], [14, 60], [16, 60], [18, 60], [20, 60], [22, 60], [24, 60], [26, 60], [28, 60], [30, 60], [32, 60], [34, 60], [36, 60], [38, 60], [40, 60], [42, 60], [44, 60], [46, 60], [48, 60], [50, 60], [52, 60], [54, 60], [56, 60], [58, 60], [60, 60], [62, 60], [64, 60], [66, 60], [68, 60], [70, 60], [72, 60], [74, 60], [76, 60], [78, 60], [80, 60], [82, 60], [84, 60], [86, 60], [88, 60], [90, 60], [92, 60], [94, 60], [96, 60], [98, 60], [100, 60], [102, 60], [104, 60], [106, 60], [108, 60], [110, 60], [112, 60], [114, 60], [116, 60], [118, 60], [120, 60], [122, 60], [124, 60], [126, 60], [128, 60], [130, 60], [132, 60], [134, 60], [136, 60], [138, 60], [140, 60], [142, 60], [144, 60], [146, 60], [148, 60], [150, 60], [152, 60], [154, 60], [156, 60], [158, 60], [160, 60], [162, 60], [164, 60], [166, 60], [168, 60], [170, 60], [172, 60], [174, 60], [176, 60], [178, 60], [180, 60]]}}, {"type": "Feature", "properties": {"type": "lat", "value": 70}, "geometry": {"type": "LineString", "coordinates": [[-180, 70], [-178, 70], [-176, 70], [-174, 70], [-172, 70], [-170, 70], [-168, 70], [-166, 70], [-164, 70], [-162, 70], [-160, 70], [-158, 70], [-156, 70], [-154, 70], [-152, 70], [-150, 70], [-148, 70], [-146, 70], [-144, 70], [-142, 70], [-140, 70], [-138, 70], [-136, 70], [-134, 70], [-132, 70], [-130, 70], [-128, 70], [-126, 70], [-124, 70], [-122, 70], [-120, 70], [-118, 70], [-116, 70], [-114, 70], [-112, 70], [-110, 70], [-108, 70], [-106, 70], [-104, 70], [-102, 70], [-100, 70], [-98, 70], [-96, 70], [-94, 70], [-92, 70], [-90, 70], [-88, 70], [-86, 70], [-84, 70], [-82, 70], [-80, 70], [-78, 70], [-76, 70], [-74, 70], [-72, 70], [-70, 70], [-68, 70], [-66, 70], [-64, 70], [-62, 70], [-60, 70], [-58, 70], [-56, 70], [-54, 70], [-52, 70], [-50, 70], [-48, 70], [-46, 70], [-44, 70], [-42, 70], [-40, 70], [-38, 70], [-36, 70], [-34, 70], [-32, 70], [-30, 70], [-28, 70], [-26, 70], [-24, 70], [-22, 70], [-20, 70], [-18, 70], [-16, 70], [-14, 70], [-12, 70], [-10, 70], [-8, 70], [-6, 70], [-4, 70], [-2, 70], [0, 70], [2, 70], [4, 70], [6, 70], [8, 70], [10, 70], [12, 70], [14, 70], [16, 70], [18, 70], [20, 70], [22, 70], [24, 70], [26, 70], [28, 70], [30, 70], [32, 70], [34, 70], [36, 70], [38, 70], [40, 70], [42, 70], [44, 70], [46, 70], [48, 70], [50, 70], [52, 70], [54, 70], [56, 70], [58, 70], [60, 70], [62, 70], [64, 70], [66, 70], [68, 70], [70, 70], [72, 70], [74, 70], [76, 70], [78, 70], [80, 70], [82, 70], [84, 70], [86, 70], [88, 70], [90, 70], [92, 70], [94, 70], [96, 70], [98, 70], [100, 70], [102, 70], [104, 70], [106, 70], [108, 70], [110, 70], [112, 70], [114, 70], [116, 70], [118, 70], [120, 70], [122, 70], [124, 70], [126, 70], [128, 70], [130, 70], [132, 70], [134, 70], [136, 70], [138, 70], [140, 70], [142, 70], [144, 70], [146, 70], [148, 70], [150, 70], [152, 70], [154, 70], [156, 70], [158, 70], [160, 70], [162, 70], [164, 70], [166, 70], [168, 70], [170, 70], [172, 70], [174, 70], [176, 70], [178, 70], [180, 70]]}}, {"type": "Feature", "properties": {"type": "lat", "value": 80}, "geometry": {"type": "LineString", "coordinates": [[-180, 80], [-178, 80], [-176, 80], [-174, 80], [-172, 80], [-170, 80], [-168, 80], [-166, 80], [-164, 80], [-162, 80], [-160, 80], [-158, 80], [-156, 80], [-154, 80], [-152, 80], [-150, 80], [-148, 80], [-146, 80], [-144, 80], [-142, 80], [-140, 80], [-138, 80], [-136, 80], [-134, 80], [-132, 80], [-130, 80], [-128, 80], [-126, 80], [-124, 80], [-122, 80], [-120, 80], [-118, 80], [-116, 80], [-114, 80], [-112, 80], [-110, 80], [-108, 80], [-106, 80], [-104, 80], [-102, 80], [-100, 80], [-98, 80], [-96, 80], [-94, 80], [-92, 80], [-90, 80], [-88, 80], [-86, 80], [-84, 80], [-82, 80], [-80, 80], [-78, 80], [-76, 80], [-74, 80], [-72, 80], [-70, 80], [-68, 80], [-66, 80], [-64, 80], [-62, 80], [-60, 80], [-58, 80], [-56, 80], [-54, 80], [-52, 80], [-50, 80], [-48, 80], [-46, 80], [-44, 80], [-42, 80], [-40, 80], [-38, 80], [-36, 80], [-34, 80], [-32, 80], [-30, 80], [-28, 80], [-26, 80], [-24, 80], [-22, 80], [-20, 80], [-18, 80], [-16, 80], [-14, 80], [-12, 80], [-10, 80], [-8, 80], [-6, 80], [-4, 80], [-2, 80], [0, 80], [2, 80], [4, 80], [6, 80], [8, 80], [10, 80], [12, 80], [14, 80], [16, 80], [18, 80], [20, 80], [22, 80], [24, 80], [26, 80], [28, 80], [30, 80], [32, 80], [34, 80], [36, 80], [38, 80], [40, 80], [42, 80], [44, 80], [46, 80], [48, 80], [50, 80], [52, 80], [54, 80], [56, 80], [58, 80], [60, 80], [62, 80], [64, 80], [66, 80], [68, 80], [70, 80], [72, 80], [74, 80], [76, 80], [78, 80], [80, 80], [82, 80], [84, 80], [86, 80], [88, 80], [90, 80], [92, 80], [94, 80], [96, 80], [98, 80], [100, 80], [102, 80], [104, 80], [106, 80], [108, 80], [110, 80], [112, 80], [114, 80], [116, 80], [118, 80], [120, 80], [122, 80], [124, 80], [126, 80], [128, 80], [130, 80], [132, 80], [134, 80], [136, 80], [138, 80], [140, 80], [142, 80], [144, 80], [146, 80], [148, 80], [150, 80], [152, 80], [154, 80], [156, 80], [158, 80], [160, 80], [162, 80], [164, 80], [166, 80], [168, 80], [170, 80], [172, 80], [174, 80], [176, 80], [178, 80], [180, 80]]}}, {"type": "Feature", "properties": {"type": "lon", "value": -180}, "geometry": {"type": "LineString", "coordinates": [[-180, 50], [-180, 51], [-180, 52], [-180, 53], [-180, 54], [-180, 55], [-180, 56], [-180, 57], [-180, 58], [-180, 59], [-180, 60], [-180, 61], [-180, 62], [-180, 63], [-180, 64], [-180, 65], [-180, 66], [-180, 67], [-180, 68], [-180, 69], [-180, 70], [-180, 71], [-180, 72], [-180, 73], [-180, 74], [-180, 75], [-180, 76], [-180, 77], [-180, 78], [-180, 79], [-180, 80], [-180, 81], [-180, 82], [-180, 83], [-180, 84], [-180, 85], [-180, 86], [-180, 87], [-180, 88], [-180, 89], [-180, 90]]}}, {"type": "Feature", "properties": {"type": "lon", "value": -150}, "geometry": {"type": "LineString", "coordinates": [[-150, 50], [-150, 51], [-150, 52], [-150, 53], [-150, 54], [-150, 55], [-150, 56], [-150, 57], [-150, 58], [-150, 59], [-150, 60], [-150, 61], [-150, 62], [-150, 63], [-150, 64], [-150, 65], [-150, 66], [-150, 67], [-150, 68], [-150, 69], [-150, 70], [-150, 71], [-150, 72], [-150, 73], [-150, 74], [-150, 75], [-150, 76], [-150, 77], [-150, 78], [-150, 79], [-150, 80], [-150, 81], [-150, 82], [-150, 83], [-150, 84], [-150, 85], [-150, 86], [-150, 87], [-150, 88], [-150, 89], [-150, 90]]}}, {"type": "Feature", "properties": {"type": "lon", "value": -120}, "geometry": {"type": "LineString", "coordinates": [[-120, 50], [-120, 51], [-120, 52], [-120, 53], [-120, 54], [-120, 55], [-120, 56], [-120, 57], [-120, 58], [-120, 59], [-120, 60], [-120, 61], [-120, 62], [-120, 63], [-120, 64], [-120, 65], [-120, 66], [-120, 67], [-120, 68], [-120, 69], [-120, 70], [-120, 71], [-120, 72], [-120, 73], [-120, 74], [-120, 75], [-120, 76], [-120, 77], [-120, 78], [-120, 79], [-120, 80], [-120, 81], [-120, 82], [-120, 83], [-120, 84], [-120, 85], [-120, 86], [-120, 87], [-120, 88], [-120, 89], [-120, 90]]}}, {"type": "Feature", "properties": {"type": "lon", "value": -90}, "geometry": {"type": "LineString", "coordinates": [[-90, 50], [-90, 51], [-90, 52], [-90, 53], [-90, 54], [-90, 55], [-90, 56], [-90, 57], [-90, 58], [-90, 59], [-90, 60], [-90, 61], [-90, 62], [-90, 63], [-90, 64], [-90, 65], [-90, 66], [-90, 67], [-90, 68], [-90, 69], [-90, 70], [-90, 71], [-90, 72], [-90, 73], [-90, 74], [-90, 75], [-90, 76], [-90, 77], [-90, 78], [-90, 79], [-90, 80], [-90, 81], [-90, 82], [-90, 83], [-90, 84], [-90, 85], [-90, 86], [-90, 87], [-90, 88], [-90, 89], [-90, 90]]}}, {"type": "Feature", "properties": {"type": "lon", "value": -60}, "geometry": {"type": "LineString", "coordinates": [[-60, 50], [-60, 51], [-60, 52], [-60, 53], [-60, 54], [-60, 55], [-60, 56], [-60, 57], [-60, 58], [-60, 59], [-60, 60], [-60, 61], [-60, 62], [-60, 63], [-60, 64], [-60, 65], [-60, 66], [-60, 67], [-60, 68], [-60, 69], [-60, 70], [-60, 71], [-60, 72], [-60, 73], [-60, 74], [-60, 75], [-60, 76], [-60, 77], [-60, 78], [-60, 79], [-60, 80], [-60, 81], [-60, 82], [-60, 83], [-60, 84], [-60, 85], [-60, 86], [-60, 87], [-60, 88], [-60, 89], [-60, 90]]}}, {"type": "Feature", "properties": {"type": "lon", "value": -30}, "geometry": {"type": "LineString", "coordinates": [[-30, 50], [-30, 51], [-30, 52], [-30, 53], [-30, 54], [-30, 55], [-30, 56], [-30, 57], [-30, 58], [-30, 59], [-30, 60], [-30, 61], [-30, 62], [-30, 63], [-30, 64], [-30, 65], [-30, 66], [-30, 67], [-30, 68], [-30, 69], [-30, 70], [-30, 71], [-30, 72], [-30, 73], [-30, 74], [-30, 75], [-30, 76], [-30, 77], [-30, 78], [-30, 79], [-30, 80], [-30, 81], [-30, 82], [-30, 83], [-30, 84], [-30, 85], [-30, 86], [-30, 87], [-30, 88], [-30, 89], [-30, 90]]}}, {"type": "Feature", "properties": {"type": "lon", "value": 0}, "geometry": {"type": "LineString", "coordinates": [[0, 50], [0, 51], [0, 52], [0, 53], [0, 54], [0, 55], [0, 56], [0, 57], [0, 58], [0, 59], [0, 60], [0, 61], [0, 62], [0, 63], [0, 64], [0, 65], [0, 66], [0, 67], [0, 68], [0, 69], [0, 70], [0, 71], [0, 72], [0, 73], [0, 74], [0, 75], [0, 76], [0, 77], [0, 78], [0, 79], [0, 80], [0, 81], [0, 82], [0, 83], [0, 84], [0, 85], [0, 86], [0, 87], [0, 88], [0, 89], [0, 90]]}}, {"type": "Feature", "properties": {"type": "lon", "value": 30}, "geometry": {"type": "LineString", "coordinates": [[30, 50], [30, 51], [30, 52], [30, 53], [30, 54], [30, 55], [30, 56], [30, 57], [30, 58], [30, 59], [30, 60], [30, 61], [30, 62], [30, 63], [30, 64], [30, 65], [30, 66], [30, 67], [30, 68], [30, 69], [30, 70], [30, 71], [30, 72], [30, 73], [30, 74], [30, 75], [30, 76], [30, 77], [30, 78], [30, 79], [30, 80], [30, 81], [30, 82], [30, 83], [30, 84], [30, 85], [30, 86], [30, 87], [30, 88], [30, 89], [30, 90]]}}, {"type": "Feature", "properties": {"type": "lon", "value": 60}, "geometry": {"type": "LineString", "coordinates": [[60, 50], [60, 51], [60, 52], [60, 53], [60, 54], [60, 55], [60, 56], [60, 57], [60, 58], [60, 59], [60, 60], [60, 61], [60, 62], [60, 63], [60, 64], [60, 65], [60, 66], [60, 67], [60, 68], [60, 69], [60, 70], [60, 71], [60, 72], [60, 73], [60, 74], [60, 75], [60, 76], [60, 77], [60, 78], [60, 79], [60, 80], [60, 81], [60, 82], [60, 83], [60, 84], [60, 85], [60, 86], [60, 87], [60, 88], [60, 89], [60, 90]]}}, {"type": "Feature", "properties": {"type": "lon", "value": 90}, "geometry": {"type": "LineString", "coordinates": [[90, 50], [90, 51], [90, 52], [90, 53], [90, 54], [90, 55], [90, 56], [90, 57], [90, 58], [90, 59], [90, 60], [90, 61], [90, 62], [90, 63], [90, 64], [90, 65], [90, 66], [90, 67], [90, 68], [90, 69], [90, 70], [90, 71], [90, 72], [90, 73], [90, 74], [90, 75], [90, 76], [90, 77], [90, 78], [90, 79], [90, 80], [90, 81], [90, 82], [90, 83], [90, 84], [90, 85], [90, 86], [90, 87], [90, 88], [90, 89], [90, 90]]}}, {"type": "Feature", "properties": {"type": "lon", "value": 120}, "geometry": {"type": "LineString", "coordinates": [[120, 50], [120, 51], [120, 52], [120, 53], [120, 54], [120, 55], [120, 56], [120, 57], [120, 58], [120, 59], [120, 60], [120, 61], [120, 62], [120, 63], [120, 64], [120, 65], [120, 66], [120, 67], [120, 68], [120, 69], [120, 70], [120, 71], [120, 72], [120, 73], [120, 74], [120, 75], [120, 76], [120, 77], [120, 78], [120, 79], [120, 80], [120, 81], [120, 82], [120, 83], [120, 84], [120, 85], [120, 86], [120, 87], [120, 88], [120, 89], [120, 90]]}}, {"type": "Feature", "properties": {"type": "lon", "value": 150}, "geometry": {"type": "LineString", "coordinates": [[150, 50], [150, 51], [150, 52], [150, 53], [150, 54], [150, 55], [150, 56], [150, 57], [150, 58], [150, 59], [150, 60], [150, 61], [150, 62], [150, 63], [150, 64], [150, 65], [150, 66], [150, 67], [150, 68], [150, 69], [150, 70], [150, 71], [150, 72], [150, 73], [150, 74], [150, 75], [150, 76], [150, 77], [150, 78], [150, 79], [150, 80], [150, 81], [150, 82], [150, 83], [150, 84], [150, 85], [150, 86], [150, 87], [150, 88], [150, 89], [150, 90]]}}]}